0 FENGYUN 1C DEB
1 30830U 99025AVQ 13283.05726728  .00000380  00000-0  24453-3 0  5069
2 30830 098.9984 309.8083 0033023 162.5278 252.4749 14.08906858341275
0 FENGYUN 1C DEB
1 30830U 99025AVQ 13285.75592230  .00000470  00000-0  29636-3 0  5087
2 30830 098.9979 312.5024 0033107 155.1867 260.0136 14.08908339341653
0 FENGYUN 1C DEB
1 30830U 99025AVQ 13286.90537218  .00000410  00000-0  26151-3 0  5094
2 30830 098.9976 313.6499 0033143 152.0662 330.0000 14.08910179341818
0 FENGYUN 1C DEB
1 30830U 99025AVQ 13288.32706659  .00000350  00000-0  22733-3 0  5106
2 30830 098.9972 315.0692 0033186 148.1478 340.8711 14.08913348342015
0 FENGYUN 1C DEB
1 30830U 99025AVQ 13289.80377105  .00000157  00000-0  11602-3 0  5119
2 30830 098.9969 316.5432 0033217 144.0869 270.7607 14.08915788342221
0 FENGYUN 1C DEB
1 30830U 99025AVQ 13291.38064304  .00000111  00000-0  89231-4 0  5124
2 30830 098.9967 318.1171 0033257 139.7783 348.6918 14.08916769342441
0 FENGYUN 1C DEB
1 30830U 99025AVQ 13293.28465514  .00000253  00000-0  17135-3 0  5134
2 30830 098.9966 320.0173 0033276 134.6159 285.8594 14.08916512342714
0 FENGYUN 1C DEB
1 30830U 99025AVQ 13294.77444196  .00000426  00000-0  27071-3 0  5145
2 30830 098.9967 321.5041 0033290 130.5763 282.0764 14.08916210342923
